[{"OBJECT_NAME":"TEN-KOH","OBJECT_ID":"2018-084G","EPOCH":"2026-03-09T23:23:52.653408","MEAN_MOTION":15.02465351,"ECCENTRICITY":0.0011972,"INCLINATION":98.0798,"RA_OF_ASC_NODE":257.1735,"ARG_OF_PERICENTER":91.8355,"MEAN_ANOMALY":268.424,"EPHEMERIS_TYPE":0,"CLASSIFICATION_TYPE":"U","NORAD_CAT_ID":43677,"ELEMENT_SET_NO":999,"REV_AT_EPOCH":40126,"BSTAR":0.00025918134,"MEAN_MOTION_DOT":3.377e-5,"MEAN_MOTION_DDOT":0},{"OBJECT_NAME":"STARLINK-5818","OBJECT_ID":"2023-028AW","EPOCH":"2026-03-09T18:21:43.357824","MEAN_MOTION":14.98325825,"ECCENTRICITY":0.00030672,"INCLINATION":70.0002,"RA_OF_ASC_NODE":204.419,"ARG_OF_PERICENTER":270.5929,"MEAN_ANOMALY":89.4879,"EPHEMERIS_TYPE":0,"CLASSIFICATION_TYPE":"U","NORAD_CAT_ID":55785,"ELEMENT_SET_NO":999,"REV_AT_EPOCH":16703,"BSTAR":1.7276102e-5,"MEAN_MOTION_DOT":1.13e-6,"MEAN_MOTION_DDOT":0}]
